SAUDISAT 1C (SO-50)     
1 27607U 02058C   26168.49245842  .00000788  00000+0  11042-3 0  9991
2 27607  64.5510 128.0407 0075265 262.4185  96.8368 14.83047547264500
SAUDISAT 2              
1 28371U 04025F   26168.50978329  .00000186  00000+0  52562-4 0  9996
2 28371  98.5508 168.5000 0023578 297.2213  62.6582 14.56684071165798
SAUDISAT 3              
1 31118U 07012B   26168.46269470  .00000202  00000+0  40852-4 0  9991
2 31118  98.1456 118.8635 0013647 222.8868 137.1275 14.71425774 27780
PISAT                   
1 41784U 16059B   26168.48459062  .00000656  00000+0  11936-3 0  9995
2 41784  97.8179 168.9246 0028407 201.7782 158.2218 14.68983786519788
FLYING LAPTOP           
1 42831U 17042G   26168.58547089  .00002893  00000+0  22936-3 0  9997
2 42831  97.4686 324.1025 0019596 120.3447 239.9718 15.01148097486517
SALSAT                  
1 46495U 20068K   26168.53797512  .00006219  00000+0  21821-3 0  9990
2 46495  97.8847 171.6239 0008040 306.6544  53.3955 15.29803905315418
